{"fetched_at":"2026-04-04T02:03:33Z","count":15623,"tles":[{"name":"STARLINK-37111","line1":"1 68381U 26063B   26092.75002315 -.01724681  88159-3 -38169-2 0  9999","line2":"2 68381  97.2834 233.5399 0001571  67.6845  76.8108 15.98104329  2324","category":"Starlink"}]}