{
  "norad_id": 68381,
  "name": "STARLINK-37111",
  "history": [
    {
      "epoch": "2026-04-02T18:00:01.999296Z",
      "apogee_km": 280.72511046773707,
      "perigee_km": 278.63189327394866,
      "latitude_deg": 35.234852950083614,
      "longitude_deg": -42.41262635240324,
      "height_km": 284.3308245256706,
      "semi_major_axis_km": 6657.815501870842,
      "eccentricity": 0.0001572,
      "inclination_deg": 97.2834,
      "raan_deg": 233.5399,
      "arg_perigee_deg": 67.6845,
      "mean_anomaly_deg": 76.8108,
      "mean_motion_rev_day": 15.98104329
    }
  ]
}